      2.10          N: GNSS NAV DATA                        RINEX VERSION / TYPE
fic2rin                                 06/02/2023 00:17:55 PGM / RUN BY / DATE
                                                            END OF HEADER
1  23  6  1  1 59 44.0  .181322451681D-03 -.261479726760D-11  .000000000000D+00
     .800000000000D+01 -.907812500000D+02  .376622830710D-08 -.182050865435D-01
    -.476092100143D-05  .129046629881D-01  .906549394131D-05  .515364549446D+04
     .352784000000D+06 -.465661287308D-07  .226840128427D+01  .186264514923D-06
     .989974971197D+00  .226437500000D+03  .968069762528D+00 -.788139972050D-08
    -.478591363823D-10  .100000000000D+01  .226400000000D+04  .000000000000D+00
     .240000000000D+01  .000000000000D+00  .465661287308D-08  .800000000000D+01
     .345600000000D+06  .400000000000D+01
5  23  6  1  1 59 44.0 -.129370484501D-03 -.147792889038D-11  .000000000000D+00
     .570000000000D+02  .881250000000D+01  .446482883519D-08  .258348145100D+01
     .393018126488D-06  .595570250880D-02  .998750329018D-05  .515367641258D+04
     .352784000000D+06  .260770320892D-07 -.303130069949D+01 -.614672899246D-07
     .966407080060D+00  .191875000000D+03  .115168673004D+01 -.779389607563D-08
     .584667210879D-09  .100000000000D+01  .226400000000D+04  .000000000000D+00
     .240000000000D+01  .000000000000D+00 -.111758708954D-07  .570000000000D+02
     .345600000000D+06  .400000000000D+01
28 23  6  1 18  0  0.0  .816546380520D-04  .193267624127D-11  .000000000000D+00
     .131000000000D+03 -.643750000000D+01  .429946480425D-08 -.699836309849D-01
    -.292435288429D-06  .679790275171D-03  .101011246443D-04  .515368812370D+04
     .410400000000D+06 -.260770320892D-07 -.926327626087D+00 -.335276126862D-07
     .961335292296D+00  .185781250000D+03  .170266184896D+01 -.781746848608D-08
    -.493234830925D-09  .100000000000D+01  .226400000000D+04  .000000000000D+00
     .240000000000D+01  .000000000000D+00 -.977888703346D-08  .643000000000D+03
     .403200000000D+06  .400000000000D+01
22 23  6  1 18  0  0.0  .491025857627D-03  .613908923697D-11  .000000000000D+00
     .130000000000D+02 -.787500000000D+01  .471841082646D-08 -.217017160029D+01
    -.363215804100D-06  .143555664690D-01  .510923564434D-05  .515362552261D+04
     .410400000000D+06  .238418579102D-06 -.185595069458D+01 -.521540641785D-07
     .962263285603D+00  .281750000000D+03 -.180210620992D+01 -.789068582159D-08
    -.939324840936D-10  .100000000000D+01  .226400000000D+04  .000000000000D+00
     .240000000000D+01  .630000000000D+02 -.838190317154D-08  .130000000000D+02
     .403200000000D+06  .400000000000D+01
21 23  6  1 18  0  0.0  .153443776071D-03 -.227373675443D-12  .000000000000D+00
     .980000000000D+02 -.135687500000D+03  .451661670664D-08 -.202696716394D+01
    -.666454434395D-05  .246395469876D-01  .842660665512D-05  .515361971092D+04
     .410400000000D+06 -.534579157829D-06  .216415562325D+01  .325962901115D-06
     .961678394862D+00  .218562500000D+03 -.754016655637D+00 -.803926343902D-08
    -.304655547269D-09  .100000000000D+01  .226400000000D+04  .000000000000D+00
     .485000000000D+01  .000000000000D+00 -.102445483208D-07  .980000000000D+02
     .403200000000D+06  .400000000000D+01
2  23  6  1 17 59 44.0 -.590103212744D-03  .397903932026D-11  .000000000000D+00
     .100000000000D+02 -.127656250000D+03  .443947063606D-08 -.133427594202D+01
    -.642612576485D-05  .172971552238D-01  .818260014057D-05  .515950333786D+04
     .410384000000D+06 -.379979610443D-06  .216918279494D+01  .175088644028D-06
     .967366847946D+00  .226687500000D+03 -.128106973290D+01 -.819534136886D-08
    -.277511559470D-09  .100000000000D+01  .226400000000D+04  .000000000000D+00
     .240000000000D+01  .000000000000D+00 -.176951289177D-07  .100000000000D+02
     .403980000000D+06  .400000000000D+01
12 23  6  1 17 59 44.0 -.383279751986D-03 -.466116034659D-11  .000000000000D+00
     .100000000000D+01  .112718750000D+03  .427624955153D-08  .718854319488D+00
     .572949647903D-05  .878492917400D-02  .798888504505D-05  .515360446167D+04
     .410384000000D+06 -.115483999252D-06  .225296634429D+00  .223517417908D-07
     .965820035904D+00  .225875000000D+03  .137513947912D+01 -.815712549130D-08
     .249296098469D-09  .100000000000D+01  .226400000000D+04  .000000000000D+00
     .240000000000D+01  .000000000000D+00 -.125728547573D-07  .100000000000D+01
     .403980000000D+06  .400000000000D+01
9  23  6  1 17 59 44.0 -.145658385009D-03  .864019966684D-11  .000000000000D+00
     .200000000000D+01  .284375000000D+01  .504949604606D-08 -.155326292446D+01
     .875443220139D-07  .237723812461D-02  .496208667755D-05  .515359481049D+04
     .410384000000D+06 -.186264514923D-07 -.196122945372D+01  .465661287308D-07
     .955754534853D+00  .280125000000D+03  .194782895149D+01 -.830463163553D-08
     .500020827875D-11  .100000000000D+01  .226400000000D+04  .000000000000D+00
     .240000000000D+01  .000000000000D+00  .931322574615D-09  .200000000000D+01
     .404190000000D+06  .400000000000D+01
7  23  6  1 17 59 44.0  .163481105119D-03 -.977706804406D-11  .000000000000D+00
     .000000000000D+00 -.197500000000D+02  .460519182472D-08  .145918909231D+01
    -.983476638794D-06  .173660640139D-01  .109430402517D-04  .515375011826D+04
     .410384000000D+06 -.346451997757D-06 -.889042012100D+00 -.633299350739D-07
     .950212856340D+00  .167375000000D+03 -.219195582563D+01 -.816355433052D-08
    -.658598861858D-09  .100000000000D+01  .226400000000D+04  .000000000000D+00
     .240000000000D+01  .000000000000D+00 -.111758708954D-07  .000000000000D+00
     .410100000000D+06  .400000000000D+01
21 23  6  1 17 59 44.0  .153444241732D-03 -.227373675443D-12  .000000000000D+00
     .300000000000D+01 -.135687500000D+03  .451661670664D-08 -.202930111075D+01
    -.666454434395D-05  .246395427966D-01  .842660665512D-05  .515361972046D+04
     .410384000000D+06 -.534579157829D-06  .216415574760D+01  .325962901115D-06
     .961678397788D+00  .218562500000D+03 -.754016629305D+00 -.803926343902D-08
    -.305012705003D-09  .100000000000D+01  .226400000000D+04  .000000000000D+00
     .240000000000D+01  .000000000000D+00 -.102445483208D-07  .300000000000D+01
     .410100000000D+06  .400000000000D+01
2  23  6  1 19 59 44.0 -.590074341744D-03  .397903932026D-11  .000000000000D+00
     .110000000000D+02 -.122468750000D+03  .445947146917D-08 -.287622786038D+00
    -.648014247417D-05  .172968526604D-01  .787340104580D-05  .515950361824D+04
     .417584000000D+06 -.208616256714D-06  .216912212919D+01 -.726431608200D-07
     .967365011984D+00  .233375000000D+03 -.128109844120D+01 -.835570519152D-08
    -.163578242262D-09  .100000000000D+01  .226400000000D+04  .000000000000D+00
     .240000000000D+01  .000000000000D+00 -.176951289177D-07  .110000000000D+02
     .410400000000D+06  .400000000000D+01
12 23  6  1 19 59 44.0 -.383313745260D-03 -.466116034659D-11  .000000000000D+00
     .300000000000D+01  .118312500000D+03  .416124476112D-08  .176923522919D+01
     .611506402493D-05  .878484128043D-02  .846013426781D-05  .515360190010D+04
     .417584000000D+06 -.242143869400D-07  .225237933378D+00 -.240281224251D-06
     .965823127050D+00  .216375000000D+03  .137498038093D+01 -.791747265166D-08
     .340014162955D-09  .100000000000D+01  .226400000000D+04  .000000000000D+00
     .240000000000D+01  .000000000000D+00 -.125728547573D-07  .300000000000D+01
     .410400000000D+06  .400000000000D+01
7  23  6  1 19 59 44.0  .163411255926D-03 -.977706804406D-11  .000000000000D+00
     .300000000000D+01 -.123125000000D+02  .447161483213D-08  .250940255933D+01
    -.786036252975D-06  .173664047616D-01  .109225511551D-04  .515374755669D+04
     .417584000000D+06  .931322574615D-07 -.889099630591D+00 -.303611159325D-06
     .950210615149D+00  .159437500000D+03 -.219203349927D+01 -.767531970787D-08
    -.586095841816D-09  .100000000000D+01  .226400000000D+04  .000000000000D+00
     .240000000000D+01  .000000000000D+00 -.111758708954D-07  .300000000000D+01
     .410400000000D+06  .400000000000D+01
9  23  6  1 19 59 44.0 -.145595986396D-03  .864019966684D-11  .000000000000D+00
     .100000000000D+02  .378125000000D+01  .505271046567D-08 -.502980072693D+00
     .193715095520D-06  .237738608848D-02  .504218041897D-05  .515359514809D+04
     .417584000000D+06 -.633299350739D-07 -.196128910859D+01  .242143869400D-07
     .955754548019D+00  .278843750000D+03  .194777898845D+01 -.829391690350D-08
    -.217866217860D-10  .100000000000D+01  .226400000000D+04  .000000000000D+00
     .240000000000D+01  .000000000000D+00  .931322574615D-09  .100000000000D+02
     .410400000000D+06  .400000000000D+01
21 23  6  1 19 59 44.0  .153442379087D-03 -.227373675443D-12  .000000000000D+00
     .400000000000D+01 -.124281250000D+03  .456661878943D-08 -.979028081021D+00
    -.678561627865D-05  .246392727131D-01  .830553472042D-05  .515362244987D+04
     .417584000000D+06 -.210478901863D-06  .216409343753D+01 -.253319740295D-06
     .961675973733D+00  .221937500000D+03 -.754075380095D+00 -.850142554707D-08
     .353586156854D-10  .100000000000D+01  .226400000000D+04  .000000000000D+00
     .240000000000D+01  .000000000000D+00 -.102445483208D-07  .400000000000D+01
     .410400000000D+06  .400000000000D+01
1  23  6  1 20  0  0.0  .181155744940D-03 -.250111042988D-11  .000000000000D+00
     .139000000000D+03 -.136468750000D+03  .379372945263D-08 -.313112464965D+01
    -.714324414730D-05  .129090307746D-01  .886060297489D-05  .515365040016D+04
     .417600000000D+06  .689178705215D-07  .226790285638D+01 -.249594449997D-06
     .989960283499D+00  .221343750000D+03  .968664504559D+00 -.757531554230D-08
    -.237867050975D-09  .100000000000D+01  .226400000000D+04  .000000000000D+00
     .340000000000D+01  .000000000000D+00  .465661287308D-08  .139000000000D+03
     .410400000000D+06  .400000000000D+01
